[
  {
    "OBJECT_NAME": "STARLINK-35318",
    "OBJECT_ID": "25240A",
    "EPOCH": "2025-11-11T06:00:02.000160",
    "MEAN_MOTION": 15.59505909,
    "ECCENTRICITY": 0.0001215,
    "INCLINATION": 53.1589,
    "RA_OF_ASC_NODE": 255.4996,
    "ARG_OF_PERICENTER": 98.6601,
    "MEAN_ANOMALY": 93.0748,
    "EPHEMERIS_TYPE": 0,
    "CLASSIFICATION_TYPE": "U",
    "NORAD_CAT_ID": 66146,
    "ELEMENT_SET_NO": 999,
    "REV_AT_EPOCH": 389,
    "BSTAR": 0.0,
    "MEAN_MOTION_DOT": -0.01919824,
    "MEAN_MOTION_DDOT": 0.0,
    "TLE_LINE1": "1 66146U 25240A   25315.25002315 -.01919824  00000+0 -26920-1 0  9995",
    "TLE_LINE2": "2 66146  53.1589 255.4996 0001215  98.6601  93.0748 15.59505909  3894",
    "COMMENT": "Grouped by shell and plane from TLE"
  },
  {
    "OBJECT_NAME": "STARLINK-33948",
    "OBJECT_ID": "25240B",
    "EPOCH": "2025-11-11T06:00:02.000160",
    "MEAN_MOTION": 15.59507576,
    "ECCENTRICITY": 0.0001356,
    "INCLINATION": 53.1591,
    "RA_OF_ASC_NODE": 255.4955,
    "ARG_OF_PERICENTER": 93.689,
    "MEAN_ANOMALY": 99.9614,
    "EPHEMERIS_TYPE": 0,
    "CLASSIFICATION_TYPE": "U",
    "NORAD_CAT_ID": 66147,
    "ELEMENT_SET_NO": 999,
    "REV_AT_EPOCH": 389,
    "BSTAR": 0.0,
    "MEAN_MOTION_DOT": -0.01920972,
    "MEAN_MOTION_DDOT": 0.0,
    "TLE_LINE1": "1 66147U 25240B   25315.25002315 -.01920972  00000+0 -26935-1 0  9998",
    "TLE_LINE2": "2 66147  53.1591 255.4955 0001356  93.6890  99.9614 15.59507576  3893",
    "COMMENT": "Grouped by shell and plane from TLE"
  },
  {
    "OBJECT_NAME": "STARLINK-35081",
    "OBJECT_ID": "25240C",
    "EPOCH": "2025-11-11T06:00:02.000160",
    "MEAN_MOTION": 15.59501062,
    "ECCENTRICITY": 0.0001405,
    "INCLINATION": 53.159,
    "RA_OF_ASC_NODE": 255.4919,
    "ARG_OF_PERICENTER": 92.2104,
    "MEAN_ANOMALY": 103.3607,
    "EPHEMERIS_TYPE": 0,
    "CLASSIFICATION_TYPE": "U",
    "NORAD_CAT_ID": 66148,
    "ELEMENT_SET_NO": 999,
    "REV_AT_EPOCH": 384,
    "BSTAR": 0.0,
    "MEAN_MOTION_DOT": -0.01912868,
    "MEAN_MOTION_DDOT": 0.0,
    "TLE_LINE1": "1 66148U 25240C   25315.25002315 -.01912868  00000+0 -26813-1 0  9999",
    "TLE_LINE2": "2 66148  53.1590 255.4919 0001405  92.2104 103.3607 15.59501062  3842",
    "COMMENT": "Grouped by shell and plane from TLE"
  },
  {
    "OBJECT_NAME": "STARLINK-35601",
    "OBJECT_ID": "25240D",
    "EPOCH": "2025-11-11T06:00:02.000160",
    "MEAN_MOTION": 15.59498962,
    "ECCENTRICITY": 0.000131,
    "INCLINATION": 53.159,
    "RA_OF_ASC_NODE": 255.4874,
    "ARG_OF_PERICENTER": 94.6754,
    "MEAN_ANOMALY": 102.8132,
    "EPHEMERIS_TYPE": 0,
    "CLASSIFICATION_TYPE": "U",
    "NORAD_CAT_ID": 66149,
    "ELEMENT_SET_NO": 999,
    "REV_AT_EPOCH": 384,
    "BSTAR": 0.0,
    "MEAN_MOTION_DOT": -0.01909835,
    "MEAN_MOTION_DDOT": 0.0,
    "TLE_LINE1": "1 66149U 25240D   25315.25002315 -.01909835  00000+0 -26768-1 0  9999",
    "TLE_LINE2": "2 66149  53.1590 255.4874 0001310  94.6754 102.8132 15.59498962  3846",
    "COMMENT": "Grouped by shell and plane from TLE"
  },
  {
    "OBJECT_NAME": "STARLINK-35605",
    "OBJECT_ID": "25240E",
    "EPOCH": "2025-11-11T06:00:02.000160",
    "MEAN_MOTION": 15.5949981,
    "ECCENTRICITY": 0.0001407,
    "INCLINATION": 53.1593,
    "RA_OF_ASC_NODE": 255.4838,
    "ARG_OF_PERICENTER": 96.9641,
    "MEAN_ANOMALY": 102.4375,
    "EPHEMERIS_TYPE": 0,
    "CLASSIFICATION_TYPE": "U",
    "NORAD_CAT_ID": 66150,
    "ELEMENT_SET_NO": 999,
    "REV_AT_EPOCH": 384,
    "BSTAR": 0.0,
    "MEAN_MOTION_DOT": -0.01908258,
    "MEAN_MOTION_DDOT": 0.0,
    "TLE_LINE1": "1 66150U 25240E   25315.25002315 -.01908258  00000+0 -26741-1 0  9990",
    "TLE_LINE2": "2 66150  53.1593 255.4838 0001407  96.9641 102.4375 15.59499810  3846",
    "COMMENT": "Grouped by shell and plane from TLE"
  },
  {
    "OBJECT_NAME": "STARLINK-35540",
    "OBJECT_ID": "25240F",
    "EPOCH": "2025-11-11T06:00:02.000160",
    "MEAN_MOTION": 15.5950308,
    "ECCENTRICITY": 0.0001398,
    "INCLINATION": 53.1592,
    "RA_OF_ASC_NODE": 255.4795,
    "ARG_OF_PERICENTER": 98.4459,
    "MEAN_ANOMALY": 102.8736,
    "EPHEMERIS_TYPE": 0,
    "CLASSIFICATION_TYPE": "U",
    "NORAD_CAT_ID": 66151,
    "ELEMENT_SET_NO": 999,
    "REV_AT_EPOCH": 384,
    "BSTAR": 0.0,
    "MEAN_MOTION_DOT": -0.01915218,
    "MEAN_MOTION_DDOT": 0.0,
    "TLE_LINE1": "1 66151U 25240F   25315.25002315 -.01915218  00000+0 -26848-1 0  9993",
    "TLE_LINE2": "2 66151  53.1592 255.4795 0001398  98.4459 102.8736 15.59503080  3841",
    "COMMENT": "Grouped by shell and plane from TLE"
  },
  {
    "OBJECT_NAME": "STARLINK-35455",
    "OBJECT_ID": "25240G",
    "EPOCH": "2025-11-11T06:00:02.000160",
    "MEAN_MOTION": 15.59504226,
    "ECCENTRICITY": 0.0001315,
    "INCLINATION": 53.1591,
    "RA_OF_ASC_NODE": 255.4754,
    "ARG_OF_PERICENTER": 101.024,
    "MEAN_ANOMALY": 102.2117,
    "EPHEMERIS_TYPE": 0,
    "CLASSIFICATION_TYPE": "U",
    "NORAD_CAT_ID": 66152,
    "ELEMENT_SET_NO": 999,
    "REV_AT_EPOCH": 384,
    "BSTAR": 0.0,
    "MEAN_MOTION_DOT": -0.01916637,
    "MEAN_MOTION_DDOT": 0.0,
    "TLE_LINE1": "1 66152U 25240G   25315.25002315 -.01916637  00000+0 -26870-1 0  9995",
    "TLE_LINE2": "2 66152  53.1591 255.4754 0001315 101.0240 102.2117 15.59504226  3844",
    "COMMENT": "Grouped by shell and plane from TLE"
  },
  {
    "OBJECT_NAME": "STARLINK-34752",
    "OBJECT_ID": "25240H",
    "EPOCH": "2025-11-11T06:00:02.000160",
    "MEAN_MOTION": 15.59504794,
    "ECCENTRICITY": 0.0001226,
    "INCLINATION": 53.159,
    "RA_OF_ASC_NODE": 255.4725,
    "ARG_OF_PERICENTER": 96.7994,
    "MEAN_ANOMALY": 108.3553,
    "EPHEMERIS_TYPE": 0,
    "CLASSIFICATION_TYPE": "U",
    "NORAD_CAT_ID": 66153,
    "ELEMENT_SET_NO": 999,
    "REV_AT_EPOCH": 384,
    "BSTAR": 0.0,
    "MEAN_MOTION_DOT": -0.01919346,
    "MEAN_MOTION_DDOT": 0.0,
    "TLE_LINE1": "1 66153U 25240H   25315.25002315 -.01919346  00000+0 -26914-1 0  9995",
    "TLE_LINE2": "2 66153  53.1590 255.4725 0001226  96.7994 108.3553 15.59504794  3840",
    "COMMENT": "Grouped by shell and plane from TLE"
  },
  {
    "OBJECT_NAME": "STARLINK-34625",
    "OBJECT_ID": "25240J",
    "EPOCH": "2025-11-11T06:00:02.000160",
    "MEAN_MOTION": 15.59507163,
    "ECCENTRICITY": 0.0001387,
    "INCLINATION": 53.1589,
    "RA_OF_ASC_NODE": 255.4678,
    "ARG_OF_PERICENTER": 94.9563,
    "MEAN_ANOMALY": 112.1125,
    "EPHEMERIS_TYPE": 0,
    "CLASSIFICATION_TYPE": "U",
    "NORAD_CAT_ID": 66154,
    "ELEMENT_SET_NO": 999,
    "REV_AT_EPOCH": 389,
    "BSTAR": 0.0,
    "MEAN_MOTION_DOT": -0.01920273,
    "MEAN_MOTION_DDOT": 0.0,
    "TLE_LINE1": "1 66154U 25240J   25315.25002315 -.01920273  00000+0 -26924-1 0  9998",
    "TLE_LINE2": "2 66154  53.1589 255.4678 0001387  94.9563 112.1125 15.59507163  3892",
    "COMMENT": "Grouped by shell and plane from TLE"
  },
  {
    "OBJECT_NAME": "STARLINK-35580",
    "OBJECT_ID": "25240K",
    "EPOCH": "2025-11-11T06:00:02.000160",
    "MEAN_MOTION": 15.5949912,
    "ECCENTRICITY": 0.0001414,
    "INCLINATION": 53.1592,
    "RA_OF_ASC_NODE": 255.4629,
    "ARG_OF_PERICENTER": 99.5911,
    "MEAN_ANOMALY": 109.3953,
    "EPHEMERIS_TYPE": 0,
    "CLASSIFICATION_TYPE": "U",
    "NORAD_CAT_ID": 66155,
    "ELEMENT_SET_NO": 999,
    "REV_AT_EPOCH": 384,
    "BSTAR": 0.0,
    "MEAN_MOTION_DOT": -0.01907709,
    "MEAN_MOTION_DDOT": 0.0,
    "TLE_LINE1": "1 66155U 25240K   25315.25002315 -.01907709  00000+0 -26733-1 0  9996",
    "TLE_LINE2": "2 66155  53.1592 255.4629 0001414  99.5911 109.3953 15.59499120  3847",
    "COMMENT": "Grouped by shell and plane from TLE"
  },
  {
    "OBJECT_NAME": "STARLINK-35621",
    "OBJECT_ID": "25240L",
    "EPOCH": "2025-11-11T06:00:02.000160",
    "MEAN_MOTION": 15.59508264,
    "ECCENTRICITY": 0.0001391,
    "INCLINATION": 53.1595,
    "RA_OF_ASC_NODE": 255.4593,
    "ARG_OF_PERICENTER": 101.1416,
    "MEAN_ANOMALY": 109.758,
    "EPHEMERIS_TYPE": 0,
    "CLASSIFICATION_TYPE": "U",
    "NORAD_CAT_ID": 66156,
    "ELEMENT_SET_NO": 999,
    "REV_AT_EPOCH": 384,
    "BSTAR": 0.0,
    "MEAN_MOTION_DOT": -0.01920552,
    "MEAN_MOTION_DDOT": 0.0,
    "TLE_LINE1": "1 66156U 25240L   25315.25002315 -.01920552  00000+0 -26927-1 0  9993",
    "TLE_LINE2": "2 66156  53.1595 255.4593 0001391 101.1416 109.7580 15.59508264  3845",
    "COMMENT": "Grouped by shell and plane from TLE"
  },
  {
    "OBJECT_NAME": "STARLINK-35594",
    "OBJECT_ID": "25240M",
    "EPOCH": "2025-11-11T06:00:02.000160",
    "MEAN_MOTION": 15.59502447,
    "ECCENTRICITY": 0.0001302,
    "INCLINATION": 53.1592,
    "RA_OF_ASC_NODE": 255.4553,
    "ARG_OF_PERICENTER": 96.566,
    "MEAN_ANOMALY": 116.2549,
    "EPHEMERIS_TYPE": 0,
    "CLASSIFICATION_TYPE": "U",
    "NORAD_CAT_ID": 66157,
    "ELEMENT_SET_NO": 999,
    "REV_AT_EPOCH": 384,
    "BSTAR": 0.0,
    "MEAN_MOTION_DOT": -0.01913372,
    "MEAN_MOTION_DDOT": 0.0,
    "TLE_LINE1": "1 66157U 25240M   25315.25002315 -.01913372  00000+0 -26820-1 0  9998",
    "TLE_LINE2": "2 66157  53.1592 255.4553 0001302  96.5660 116.2549 15.59502447  3844",
    "COMMENT": "Grouped by shell and plane from TLE"
  },
  {
    "OBJECT_NAME": "STARLINK-35587",
    "OBJECT_ID": "25240N",
    "EPOCH": "2025-11-11T06:00:02.000160",
    "MEAN_MOTION": 15.59502286,
    "ECCENTRICITY": 0.0001237,
    "INCLINATION": 53.1591,
    "RA_OF_ASC_NODE": 255.4509,
    "ARG_OF_PERICENTER": 97.3567,
    "MEAN_ANOMALY": 117.3809,
    "EPHEMERIS_TYPE": 0,
    "CLASSIFICATION_TYPE": "U",
    "NORAD_CAT_ID": 66158,
    "ELEMENT_SET_NO": 999,
    "REV_AT_EPOCH": 384,
    "BSTAR": 0.0,
    "MEAN_MOTION_DOT": -0.01912796,
    "MEAN_MOTION_DDOT": 0.0,
    "TLE_LINE1": "1 66158U 25240N   25315.25002315 -.01912796  00000+0 -26812-1 0  9999",
    "TLE_LINE2": "2 66158  53.1591 255.4509 0001237  97.3567 117.3809 15.59502286  3849",
    "COMMENT": "Grouped by shell and plane from TLE"
  }
]